{
  "type": "FeatureCollection",
  "features": [
    {
      "type": "Feature",
      "properties": {
        "norad_id": 46435,
        "name": "IRIDIUM 33 DEB",
        "group": "iridium-33-debris",
        "lat": 42.996364935141195,
        "lon": -164.22779507861387,
        "alt_km": 891.274950938433,
        "timestamp": "2025-12-16T13:52:37.908014+00:00",
        "meta_object_name": "IRIDIUM 33 DEB",
        "meta_object_id": "1997-051ABN",
        "meta_epoch": "2025-12-13T20:22:29.882208",
        "meta_mean_motion": 14.32399442,
        "meta_eccentricity": 0.0208315,
        "meta_inclination": 86.2839,
        "meta_ra_of_asc_node": 193.4722,
        "meta_arg_of_pericenter": 272.7642,
        "meta_mean_anomaly": 103.0816,
        "meta_ephemeris_type": 0,
        "meta_classification_type": "U",
        "meta_norad_cat_id": 46435,
        "meta_element_set_no": 999,
        "meta_rev_at_epoch": 7932,
        "meta_bstar": 0.009141333,
        "meta_mean_motion_dot": 0.00031559,
        "meta_mean_motion_ddot": 0,
        "tle_line1": "1 46435U 97051ABN 25347.84895697  .00031559  00000+0  91413-2 0  9993",
        "tle_line2": "2 46435  86.2839 193.4722 0208315 272.7642 103.0816 14.32399442 79328"
      },
      "geometry": {
        "type": "Point",
        "coordinates": [
          -164.22779507861387,
          42.996364935141195
        ]
      }
    },
    {
      "type": "Feature",
      "properties": {
        "norad_id": 46734,
        "name": "IRIDIUM 33 DEB",
        "group": "iridium-33-debris",
        "lat": 4.359660009754166,
        "lon": 1.4651900535357636,
        "alt_km": 734.2139856644262,
        "timestamp": "2025-12-16T13:52:37.908024+00:00",
        "meta_object_name": "IRIDIUM 33 DEB",
        "meta_object_id": "1997-051ABR",
        "meta_epoch": "2025-12-14T19:23:13.551072",
        "meta_mean_motion": 14.41903662,
        "meta_eccentricity": 0.00382303,
        "meta_inclination": 86.2641,
        "meta_ra_of_asc_node": 1.9566,
        "meta_arg_of_pericenter": 328.7467,
        "meta_mean_anomaly": 211.2629,
        "meta_ephemeris_type": 0,
        "meta_classification_type": "U",
        "meta_norad_cat_id": 46734,
        "meta_element_set_no": 999,
        "meta_rev_at_epoch": 63040,
        "meta_bstar": 0.00093372704,
        "meta_mean_motion_dot": 3.101e-05,
        "meta_mean_motion_ddot": 0,
        "tle_line1": "1 46734U 97051ABR 25348.80779573  .00003101  00000+0  93373-3 0  9996",
        "tle_line2": "2 46734  86.2641   1.9566 0038230 328.7467 211.2629 14.41903662630405"
      },
      "geometry": {
        "type": "Point",
        "coordinates": [
          1.4651900535357636,
          4.359660009754166
        ]
      }
    },
    {
      "type": "Feature",
      "properties": {
        "norad_id": 46965,
        "name": "IRIDIUM 33 DEB",
        "group": "iridium-33-debris",
        "lat": 35.791704051717645,
        "lon": -18.35576696075525,
        "alt_km": 686.5216926436178,
        "timestamp": "2025-12-16T13:52:37.908034+00:00",
        "meta_object_name": "IRIDIUM 33 DEB",
        "meta_object_id": "1997-051ABX",
        "meta_epoch": "2025-12-13T10:45:20.165184",
        "meta_mean_motion": 14.60307321,
        "meta_eccentricity": 0.00180716,
        "meta_inclination": 86.336,
        "meta_ra_of_asc_node": 340.3836,
        "meta_arg_of_pericenter": 330.9129,
        "meta_mean_anomaly": 180.178,
        "meta_ephemeris_type": 0,
        "meta_classification_type": "U",
        "meta_norad_cat_id": 46965,
        "meta_element_set_no": 999,
        "meta_rev_at_epoch": 62278,
        "meta_bstar": 0.0013493066,
        "meta_mean_motion_dot": 6.553e-05,
        "meta_mean_motion_ddot": 0,
        "tle_line1": "1 46965U 97051ABX 25347.44815006  .00006553  00000+0  13493-2 0  9991",
        "tle_line2": "2 46965  86.3360 340.3836 0018071 330.9129 180.1780 14.60307321622786"
      },
      "geometry": {
        "type": "Point",
        "coordinates": [
          -18.35576696075525,
          35.791704051717645
        ]
      }
    },
    {
      "type": "Feature",
      "properties": {
        "norad_id": 46971,
        "name": "IRIDIUM 33 DEB",
        "group": "iridium-33-debris",
        "lat": -81.30912849583463,
        "lon": -53.47297058016625,
        "alt_km": 577.7726139443903,
        "timestamp": "2025-12-16T13:52:37.908044+00:00",
        "meta_object_name": "IRIDIUM 33 DEB",
        "meta_object_id": "1997-051ACD",
        "meta_epoch": "2025-12-15T06:26:47.255136",
        "meta_mean_motion": 14.98190308,
        "meta_eccentricity": 0.00029657,
        "meta_inclination": 86.3366,
        "meta_ra_of_asc_node": 331.9236,
        "meta_arg_of_pericenter": 297.7395,
        "meta_mean_anomaly": 121.3901,
        "meta_ephemeris_type": 0,
        "meta_classification_type": "U",
        "meta_norad_cat_id": 46971,
        "meta_element_set_no": 999,
        "meta_rev_at_epoch": 64268,
        "meta_bstar": 0.0017441503,
        "meta_mean_motion_dot": 0.00020752,
        "meta_mean_motion_ddot": 0,
        "tle_line1": "1 46971U 97051ACD 25349.26860249  .00020752  00000+0  17442-2 0  9994",
        "tle_line2": "2 46971  86.3366 331.9236 0002965 297.7395 121.3901 14.98190308642688"
      },
      "geometry": {
        "type": "Point",
        "coordinates": [
          -53.47297058016625,
          -81.30912849583463
        ]
      }
    },
    {
      "type": "Feature",
      "properties": {
        "norad_id": 46974,
        "name": "IRIDIUM 33 DEB",
        "group": "iridium-33-debris",
        "lat": -72.79468614199021,
        "lon": -64.33275972775958,
        "alt_km": 737.1288214704819,
        "timestamp": "2025-12-16T13:52:37.908055+00:00",
        "meta_object_name": "IRIDIUM 33 DEB",
        "meta_object_id": "1997-051ACG",
        "meta_epoch": "2025-12-14T14:09:41.074272",
        "meta_mean_motion": 14.44439168,
        "meta_eccentricity": 0.00956816,
        "meta_inclination": 86.2983,
        "meta_ra_of_asc_node": 104.4675,
        "meta_arg_of_pericenter": 181.0289,
        "meta_mean_anomaly": 179.0732,
        "meta_ephemeris_type": 0,
        "meta_classification_type": "U",
        "meta_norad_cat_id": 46974,
        "meta_element_set_no": 999,
        "meta_rev_at_epoch": 57535,
        "meta_bstar": 0.0034715296,
        "meta_mean_motion_dot": 0.00012692,
        "meta_mean_motion_ddot": 0,
        "tle_line1": "1 46974U 97051ACG 25348.59005873  .00012692  00000+0  34715-2 0  9992",
        "tle_line2": "2 46974  86.2983 104.4675 0095681 181.0289 179.0732 14.44439168575351"
      },
      "geometry": {
        "type": "Point",
        "coordinates": [
          -64.33275972775958,
          -72.79468614199021
        ]
      }
    },
    {
      "type": "Feature",
      "properties": {
        "norad_id": 46979,
        "name": "IRIDIUM 33 DEB",
        "group": "iridium-33-debris",
        "lat": 17.89381844730089,
        "lon": -134.41492200199477,
        "alt_km": 586.109205136443,
        "timestamp": "2025-12-16T13:52:37.908065+00:00",
        "meta_object_name": "IRIDIUM 33 DEB",
        "meta_object_id": "1997-051ACM",
        "meta_epoch": "2025-12-08T11:38:51.411264",
        "meta_mean_motion": 14.88966671,
        "meta_eccentricity": 0.00280118,
        "meta_inclination": 86.3345,
        "meta_ra_of_asc_node": 50.5282,
        "meta_arg_of_pericenter": 237.8713,
        "meta_mean_anomaly": 121.9794,
        "meta_ephemeris_type": 0,
        "meta_classification_type": "U",
        "meta_norad_cat_id": 46979,
        "meta_element_set_no": 999,
        "meta_rev_at_epoch": 35365,
        "meta_bstar": 0.0048738532,
        "meta_mean_motion_dot": 0.00046401,
        "meta_mean_motion_ddot": 0,
        "tle_line1": "1 46979U 97051ACM 25342.48531726  .00046401  00000+0  48739-2 0  9996",
        "tle_line2": "2 46979  86.3345  50.5282 0028011 237.8713 121.9794 14.88966671353652"
      },
      "geometry": {
        "type": "Point",
        "coordinates": [
          -134.41492200199477,
          17.89381844730089
        ]
      }
    }
  ]
}